{
  "version": "2.0",
  "country": "AZ",
  "standard": "Yeni Hesablar Planı",
  "last_updated": "2026-01-15",
  "accounts": [
    {
      "id": "1",
      "code": "100",
      "name": "Qeyri-dövriyyə aktivləri",
      "name_en": "Non-current Assets",
      "type": "asset",
      "section": 1,
      "parent_code": null,
      "is_header": true,
      "normal_balance": "debit",
      "description": "Uzunmüddətli aktivlər"
    },
    {
      "id": "2",
      "code": "101",
      "name": "Qeyri-maddi aktivlər",
      "name_en": "Intangible Assets",
      "type": "asset",
      "section": 1,
      "parent_code": "100",
      "is_header": true,
      "normal_balance":  "debit",
      "description": "Patentlər, lisenziyalar və s."
    },
    {
      "id": "3",
      "code": "10101",
      "name": "Patent və lisenziyalar",
      "name_en": "Patents and Licenses",
      "type": "asset",
      "section": 1,
      "parent_code": "101",
      "is_header":  false,
      "normal_balance":  "debit",
      "description": "İxtira patentləri və istifadə hüquqları"
    },
    {
      "id": "4",
      "code": "10102",
      "name": "Proqram təminatı",
      "name_en": "Software",
      "type": "asset",
      "section": 1,
      "parent_code": "101",
      "is_header": false,
      "normal_balance": "debit",
      "description": "Kompüter proqramları və lisenziyalar"
    },
    {
      "id": "5",
      "code": "10103",
      "name":  "Ticarət nişanları",
      "name_en":  "Trademarks",
      "type":  "asset",
      "section":  1,
      "parent_code": "101",
      "is_header": false,
      "normal_balance": "debit",
      "description": "Brendlər və loqotiplər"
    },
    {
      "id": "6",
      "code": "102",
      "name": "Əsas vəsaitlər",
      "name_en": "Property, Plant and Equipment",
      "type": "asset",
      "section": 1,
      "parent_code": "100",
      "is_header":  true,
      "normal_balance": "debit",
      "description": "Maddi əsas vəsaitlər"
    },
    {
      "id": "7",
      "code": "10201",
      "name": "Binalar",
      "name_en":  "Buildings",
      "type":  "asset",
      "section":  1,
      "parent_code": "102",
      "is_header": false,
      "normal_balance": "debit",
      "description": "İnzibati və istehsalat binaları"
    },
    {
      "id": "8",
      "code": "10202",
      "name": "Maşın və avadanlıqlar",
      "name_en": "Machinery and Equipment",
      "type":  "asset",
      "section":  1,
      "parent_code": "102",
      "is_header": false,
      "normal_balance": "debit",
      "description": "İstehsalat avadanlıqları"
    },
    {
      "id": "9",
      "code": "10203",
      "name": "Nəqliyyat vasitələri",
      "name_en": "Vehicles",
      "type": "asset",
      "section": 1,
      "parent_code":  "102",
      "is_header": false,
      "normal_balance": "debit",
      "description": "Avtomobillər və yük maşınları"
    },
    {
      "id": "10",
      "code": "10204",
      "name":  "Avadanlıq və alətlər",
      "name_en": "Tools and Equipment",
      "type": "asset",
      "section": 1,
      "parent_code":  "102",
      "is_header": false,
      "normal_balance": "debit",
      "description": "Kiçik avadanlıqlar və alətlər"
    },
    {
      "id":  "11",
      "code":  "103",
      "name": "Yığılmış köhnəlmə",
      "name_en":  "Accumulated Depreciation",
      "type": "asset",
      "section": 1,
      "parent_code":  "100",
      "is_header":  true,
      "normal_balance": "credit",
      "description": "Əsas vəsaitlərin köhnəlməsi"
    },
    {
      "id": "12",
      "code": "10301",
      "name": "Binaların köhnəlməsi",
      "name_en": "Depreciation of Buildings",
      "type": "asset",
      "section": 1,
      "parent_code":  "103",
      "is_header": false,
      "normal_balance": "credit",
      "description": "Binaların yığılmış köhnəlməsi"
    },
    {
      "id": "13",
      "code": "10302",
      "name": "Avadanlıqların köhnəlməsi",
      "name_en": "Depreciation of Equipment",
      "type": "asset",
      "section": 1,
      "parent_code": "103",
      "is_header": false,
      "normal_balance": "credit",
      "description": "Avadanlıqların yığılmış köhnəlməsi"
    },
    {
      "id": "14",
      "code": "104",
      "name": "Uzunmüddətli maliyyə investisiyaları",
      "name_en": "Long-term Financial Investments",
      "type": "asset",
      "section": 1,
      "parent_code": "100",
      "is_header":  true,
      "normal_balance": "debit",
      "description": "Səhmlər və istiqrazlar"
    },
    {
      "id": "15",
      "code": "10401",
      "name": "Asılı təşkilatlarda investisiyalar",
      "name_en": "Investments in Subsidiaries",
      "type": "asset",
      "section": 1,
      "parent_code": "104",
      "is_header": false,
      "normal_balance": "debit",
      "description": "Törəmə şirkətlərdə paylar"
    },
    {
      "id": "16",
      "code": "200",
      "name": "Dövriyyə aktivləri",
      "name_en": "Current Assets",
      "type": "asset",
      "section": 2,
      "parent_code":  null,
      "is_header": true,
      "normal_balance": "debit",
      "description": "Qısamüddətli aktivlər"
    },
    {
      "id": "17",
      "code": "201",
      "name": "Material ehtiyatları",
      "name_en": "Inventories",
      "type": "asset",
      "section": 2,
      "parent_code": "200",
      "is_header": true,
      "normal_balance":  "debit",
      "description": "Xammal və materiallar"
    },
    {
      "id": "18",
      "code": "20101",
      "name": "Xammal və materiallar",
      "name_en": "Raw Materials",
      "type": "asset",
      "section": 2,
      "parent_code": "201",
      "is_header": false,
      "normal_balance": "debit",
      "description": "İstehsalat xammalı"
    },
    {
      "id": "19",
      "code": "20102",
      "name": "Yarımfabrikatlar",
      "name_en": "Work in Progress",
      "type": "asset",
      "section": 2,
      "parent_code": "201",
      "is_header": false,
      "normal_balance": "debit",
      "description": "İstehsalatda olan məhsullar"
    },
    {
      "id":  "20",
      "code":  "20103",
      "name": "Hazır məhsul",
      "name_en":  "Finished Goods",
      "type": "asset",
      "section": 2,
      "parent_code": "201",
      "is_header": false,
      "normal_balance":  "debit",
      "description": "Satışa hazır məhsullar"
    },
    {
      "id": "21",
      "code": "20104",
      "name": "Mallar",
      "name_en":  "Merchandise",
      "type": "asset",
      "section": 2,
      "parent_code":  "201",
      "is_header": false,
      "normal_balance": "debit",
      "description": "Ticarət malları"
    },
    {
      "id": "22",
      "code": "202",
      "name": "Alıcılar və sifarişçilər",
      "name_en": "Accounts Receivable",
      "type": "asset",
      "section": 2,
      "parent_code": "200",
      "is_header": true,
      "normal_balance": "debit",
      "description": "Debitor borcları"
    },
    {
      "id": "23",
      "code": "20201",
      "name": "Qısamüddətli debitor borcları",
      "name_en": "Short-term Receivables",
      "type": "asset",
      "section": 2,
      "parent_code": "202",
      "is_header": false,
      "normal_balance": "debit",
      "description": "1 ilə qədər alınacaq borclar"
    },
    {
      "id":  "24",
      "code":  "20202",
      "name": "Şübhəli borclar üzrə ehtiyat",
      "name_en":  "Allowance for Doubtful Debts",
      "type": "asset",
      "section": 2,
      "parent_code": "202",
      "is_header": false,
      "normal_balance": "credit",
      "description": "Alınmayacaq borclar üzrə ehtiyat"
    },
    {
      "id":  "25",
      "code":  "203",
      "name": "Pul vəsaitləri",
      "name_en": "Cash and Cash Equivalents",
      "type": "asset",
      "section": 2,
      "parent_code":  "200",
      "is_header": true,
      "normal_balance": "debit",
      "description": "Nağd və bank hesablarında pul"
    },
    {
      "id": "26",
      "code": "20301",
      "name": "Kassada pul",
      "name_en": "Cash on Hand",
      "type": "asset",
      "section": 2,
      "parent_code": "203",
      "is_header": false,
      "normal_balance": "debit",
      "description": "Nağd pul vəsaitləri"
    },
    {
      "id": "27",
      "code": "20302",
      "name": "Bank hesablarında pul (AZN)",
      "name_en": "Cash in Bank (AZN)",
      "type": "asset",
      "section":  2,
      "parent_code": "203",
      "is_header": false,
      "normal_balance": "debit",
      "description": "Milli valyutada bank hesabları"
    },
    {
      "id": "28",
      "code": "20303",
      "name": "Bank hesablarında pul (valyuta)",
      "name_en": "Cash in Bank (Foreign Currency)",
      "type": "asset",
      "section": 2,
      "parent_code": "203",
      "is_header": false,
      "normal_balance": "debit",
      "description": "Xarici valyutada bank hesabları"
    },
    {
      "id": "29",
      "code": "300",
      "name": "Kapital və ehtiyatlar",
      "name_en": "Equity and Reserves",
      "type": "equity",
      "section": 3,
      "parent_code":  null,
      "is_header": true,
      "normal_balance": "credit",
      "description": "Mülkiyyətçi kapitali"
    },
    {
      "id": "30",
      "code": "301",
      "name": "Nizamnamə kapitali",
      "name_en": "Share Capital",
      "type": "equity",
      "section": 3,
      "parent_code": "300",
      "is_header": false,
      "normal_balance": "credit",
      "description": "Qeydiyyat zamanı töhfə olunan kapital"
    },
    {
      "id": "31",
      "code": "302",
      "name": "Əlavə kapital",
      "name_en": "Additional Paid-in Capital",
      "type": "equity",
      "section": 3,
      "parent_code": "300",
      "is_header": false,
      "normal_balance": "credit",
      "description": "Nominal dəyərdən artıq qoyulan kapital"
    },
    {
      "id":  "32",
      "code":  "303",
      "name":  "Ehtiyat kapitali",
      "name_en": "Reserve Capital",
      "type": "equity",
      "section": 3,
      "parent_code": "300",
      "is_header": false,
      "normal_balance": "credit",
      "description": "Qanunvericilik üzrə ehtiyat fondu"
    },
    {
      "id": "33",
      "code": "304",
      "name": "Bölüşdürülməmiş mənfəət",
      "name_en":  "Retained Earnings",
      "type":  "equity",
      "section":  3,
      "parent_code": "300",
      "is_header": false,
      "normal_balance": "credit",
      "description": "Keçmiş illərin yığılmış mənfəəti"
    },
    {
      "id": "34",
      "code": "305",
      "name": "Ödənilməmiş zərərlər",
      "name_en": "Accumulated Losses",
      "type": "equity",
      "section": 3,
      "parent_code": "300",
      "is_header": false,
      "normal_balance": "debit",
      "description": "Keçmiş illərin örtülməmiş zərərləri"
    },
    {
      "id": "35",
      "code": "400",
      "name": "Uzunmüddətli öhdəliklər",
      "name_en": "Non-current Liabilities",
      "type": "liability",
      "section": 4,
      "parent_code": null,
      "is_header": true,
      "normal_balance": "credit",
      "description": "1 ildən çox müddətə borclar"
    },
    {
      "id": "36",
      "code": "401",
      "name": "Uzunmüddətli bank kreditləri",
      "name_en": "Long-term Bank Loans",
      "type": "liability",
      "section": 4,
      "parent_code": "400",
      "is_header": false,
      "normal_balance": "credit",
      "description": "1 ildən çox müddətə bank kreditləri"
    },
    {
      "id": "37",
      "code": "402",
      "name": "İsteqrazlar üzrə öhdəliklər",
      "name_en": "Bonds Payable",
      "type": "liability",
      "section": 4,
      "parent_code": "400",
      "is_header": false,
      "normal_balance": "credit",
      "description": "Buraxılmış istiqrazlar"
    },
    {
      "id": "38",
      "code": "403",
      "name": "Təxirə salınmış vergi öhdəlikləri",
      "name_en": "Deferred Tax Liabilities",
      "type":  "liability",
      "section":  4,
      "parent_code": "400",
      "is_header": false,
      "normal_balance": "credit",
      "description": "Gələcək dövrlərin vergi öhdəlikləri"
    },
    {
      "id": "39",
      "code": "500",
      "name": "Qısamüddətli öhdəliklər",
      "name_en": "Current Liabilities",
      "type": "liability",
      "section": 5,
      "parent_code":  null,
      "is_header": true,
      "normal_balance": "credit",
      "description": "1 ilə qədər ödəniləcək borclar"
    },
    {
      "id":  "40",
      "code":  "501",
      "name":  "Təchizatçılar və podratçılar",
      "name_en": "Accounts Payable",
      "type": "liability",
      "section": 5,
      "parent_code": "500",
      "is_header": false,
      "normal_balance": "credit",
      "description": "Kreditor borcları"
    },
    {
      "id": "41",
      "code": "502",
      "name": "Qısamüddətli bank kreditləri",
      "name_en": "Short-term Bank Loans",
      "type": "liability",
      "section": 5,
      "parent_code": "500",
      "is_header": false,
      "normal_balance": "credit",
      "description": "1 ilə qədər ödəniləcək kreditlər"
    },
    {
      "id": "42",
      "code": "503",
      "name": "İşçilərə əmək haqqı üzrə borc",
      "name_en": "Salaries Payable",
      "type":  "liability",
      "section":  5,
      "parent_code": "500",
      "is_header": false,
      "normal_balance": "credit",
      "description": "Hesablanmış, amma ödənilməmiş maaşlar"
    },
    {
      "id": "43",
      "code": "504",
      "name": "Büdcə ilə hesablaşmalar",
      "name_en": "Taxes Payable",
      "type": "liability",
      "section": 5,
      "parent_code": "500",
      "is_header": true,
      "normal_balance":  "credit",
      "description":  "Vergi öhdəlikləri"
    },
    {
      "id": "44",
      "code": "50401",
      "name": "Mənfəət vergisi",
      "name_en": "Income Tax Payable",
      "type":  "liability",
      "section":  5,
      "parent_code": "504",
      "is_header": false,
      "normal_balance": "credit",
      "description": "Hesablanmış mənfəət vergisi"
    },
    {
      "id": "45",
      "code": "50402",
      "name": "Əlavə dəyər vergisi (ƏDV)",
      "name_en": "Value Added Tax (VAT)",
      "type": "liability",
      "section": 5,
      "parent_code": "504",
      "is_header": false,
      "normal_balance":  "credit",
      "description":  "ƏDV öhdəliyi"
    },
    {
      "id": "46",
      "code": "50403",
      "name": "Sosial sığorta ayırmaları",
      "name_en": "Social Security Contributions",
      "type": "liability",
      "section": 5,
      "parent_code": "504",
      "is_header":  false,
      "normal_balance": "credit",
      "description": "DSMF-yə ayırmalar"
    },
    {
      "id": "47",
      "code": "600",
      "name": "Satışdan gəlirlər",
      "name_en": "Revenue from Sales",
      "type":  "revenue",
      "section":  6,
      "parent_code": null,
      "is_header": true,
      "normal_balance": "credit",
      "description": "Əsas fəaliyyətdən gəlirlər"
    },
    {
      "id": "48",
      "code": "601",
      "name": "Məhsul satışından gəlir",
      "name_en":  "Revenue from Product Sales",
      "type": "revenue",
      "section": 6,
      "parent_code": "600",
      "is_header": false,
      "normal_balance": "credit",
      "description": "İstehsal məhsullarının satışı"
    },
    {
      "id": "49",
      "code": "602",
      "name": "Mal satışından gəlir",
      "name_en": "Revenue from Merchandise Sales",
      "type": "revenue",
      "section": 6,
      "parent_code": "600",
      "is_header": false,
      "normal_balance":  "credit",
      "description":  "Ticarət mallarının satışı"
    },
    {
      "id": "50",
      "code": "603",
      "name": "Xidmət göstərilməsindən gəlir",
      "name_en": "Service Revenue",
      "type": "revenue",
      "section": 6,
      "parent_code": "600",
      "is_header": false,
      "normal_balance": "credit",
      "description": "Xidmətlərin göstərilməsi"
    },
    {
      "id": "51",
      "code": "604",
      "name": "Digər əməliyyat gəlirləri",
      "name_en": "Other Operating Income",
      "type": "revenue",
      "section": 6,
      "parent_code": "600",
      "is_header":  false,
      "normal_balance": "credit",
      "description": "Əlavə əməliyyat gəlirləri"
    },
    {
      "id": "52",
      "code": "700",
      "name": "Əməliyyat xərcləri",
      "name_en": "Operating Expenses",
      "type": "expense",
      "section": 7,
      "parent_code":  null,
      "is_header": true,
      "normal_balance": "debit",
      "description": "Əsas fəaliyyət xərcləri"
    },
    {
      "id": "53",
      "code": "701",
      "name": "Satışın maya dəyəri",
      "name_en": "Cost of Goods Sold",
      "type": "expense",
      "section": 7,
      "parent_code": "700",
      "is_header": false,
      "normal_balance": "debit",
      "description": "Satılan məhsulun maya dəyəri"
    },
    {
      "id": "54",
      "code": "702",
      "name": "İnzibati xərclər",
      "name_en": "Administrative Expenses",
      "type":  "expense",
      "section":  7,
      "parent_code": "700",
      "is_header": true,
      "normal_balance":  "debit",
      "description": "İdarəetmə xərcləri"
    },
    {
      "id": "55",
      "code": "70201",
      "name": "Əmək haqqı",
      "name_en": "Salaries and Wages",
      "type": "expense",
      "section": 7,
      "parent_code": "702",
      "is_header": false,
      "normal_balance": "debit",
      "description": "İşçilərin əmək haqqı"
    },
    {
      "id": "56",
      "code": "70202",
      "name": "İcarə xərcləri",
      "name_en": "Rent Expense",
      "type": "expense",
      "section": 7,
      "parent_code":  "702",
      "is_header": false,
      "normal_balance": "debit",
      "description": "Ofis və ya bina icarəsi"
    },
    {
      "id": "57",
      "code": "70203",
      "name":  "Kommunal xərclər",
      "name_en": "Utilities",
      "type": "expense",
      "section": 7,
      "parent_code": "702",
      "is_header": false,
      "normal_balance": "debit",
      "description": "Elektrik, su, qaz"
    },
    {
      "id": "58",
      "code": "70204",
      "name": "Köhnəlmə və amortizasiya",
      "name_en": "Depreciation and Amortization",
      "type": "expense",
      "section": 7,
      "parent_code": "702",
      "is_header": false,
      "normal_balance":  "debit",
      "description": "Əsas vəsaitlərin köhnəlməsi"
    },
    {
      "id": "59",
      "code": "703",
      "name": "Kommersiya xərcləri",
      "name_en": "Selling Expenses",
      "type":  "expense",
      "section":  7,
      "parent_code": "700",
      "is_header":  true,
      "normal_balance":  "debit",
      "description": "Satış və marketinq xərcləri"
    },
    {
      "id": "60",
      "code": "70301",
      "name": "Reklam xərcləri",
      "name_en": "Advertising Expenses",
      "type": "expense",
      "section": 7,
      "parent_code": "703",
      "is_header": false,
      "normal_balance": "debit",
      "description": "Reklam və marketinq kampaniyaları"
    },
    {
      "id":  "61",
      "code":  "70302",
      "name": "Nəqliyyat xərcləri",
      "name_en": "Transportation Expenses",
      "type": "expense",
      "section": 7,
      "parent_code": "703",
      "is_header": false,
      "normal_balance":  "debit",
      "description": "Mal çatdırılması xərcləri"
    },
    {
      "id":  "62",
      "code":  "800",
      "name": "Maliyyə fəaliyyətindən gəlirlər",
      "name_en": "Financial Income",
      "type": "revenue",
      "section": 8,
      "parent_code":  null,
      "is_header": true,
      "normal_balance": "credit",
      "description": "Faiz və dividend gəlirləri"
    },
    {
      "id": "63",
      "code": "801",
      "name": "Faiz gəlirləri",
      "name_en": "Interest Income",
      "type":  "revenue",
      "section":  8,
      "parent_code": "800",
      "is_header": false,
      "normal_balance": "credit",
      "description": "Bank depozitləri və borclar üzrə faizlər"
    },
    {
      "id": "64",
      "code": "802",
      "name": "Dividend gəlirləri",
      "name_en": "Dividend Income",
      "type": "revenue",
      "section": 8,
      "parent_code": "800",
      "is_header": false,
      "normal_balance": "credit",
      "description": "Səhm dividendləri"
    },
    {
      "id": "65",
      "code": "900",
      "name": "Maliyyə fəaliyyətindən xərclər",
      "name_en": "Financial Expenses",
      "type": "expense",
      "section": 9,
      "parent_code":  null,
      "is_header": true,
      "normal_balance": "debit",
      "description": "Faiz xərcləri və bank komissiyaları"
    },
    {
      "id": "66",
      "code": "901",
      "name": "Faiz xərcləri",
      "name_en":  "Interest Expense",
      "type": "expense",
      "section": 9,
      "parent_code":  "900",
      "is_header": false,
      "normal_balance": "debit",
      "description": "Bank kreditləri üzrə faizlər"
    },
    {
      "id": "67",
      "code": "902",
      "name": "Bank komissiyaları",
      "name_en": "Bank Fees",
      "type": "expense",
      "section": 9,
      "parent_code":  "900",
      "is_header": false,
      "normal_balance": "debit",
      "description": "Bank xidmətləri üzrə ödənişlər"
    },
    {
      "id": "68",
      "code": "903",
      "name": "Valyuta məzənnəsi fərqləri",
      "name_en": "Foreign Exchange Losses",
      "type": "expense",
      "section": 9,
      "parent_code":  "900",
      "is_header": false,
      "normal_balance": "debit",
      "description": "Valyuta əməliyyatlarından zərərlər"
    }
  ]
}